CCSDS_OMM_VERS,COMMENT,CREATION_DATE,ORIGINATOR,OBJECT_NAME,OBJECT_ID,CENTER_NAME,REF_FRAME,TIME_SYSTEM,MEAN_ELEMENT_THEORY,EPOCH,MEAN_MOTION,ECCENTRICITY,INCLINATION,RA_OF_ASC_NODE,ARG_OF_PERICENTER,MEAN_ANOMALY,EPHEMERIS_TYPE,CLASSIFICATION_TYPE,NORAD_CAT_ID,ELEMENT_SET_NO,REV_AT_EPOCH,BSTAR,MEAN_MOTION_DOT,MEAN_MOTION_DDOT,SEMIMAJOR_AXIS,PERIOD,APOAPSIS,PERIAPSIS,OBJECT_TYPE,RCS_SIZE,COUNTRY_CODE,LAUNCH_DATE,SITE,DECAY_DATE,FILE,GP_ID,TLE_LINE0,TLE_LINE1,TLE_LINE2
2,GENERATED VIA SPACE-TRACK.ORG API,2018-03-01T22:39:29,18 SPCS,GALILEO-FM3,2012-055A,EARTH,TEME,UTC,SGP4,2018-03-01T04:18:41.189760,1.70473589,0.0002721,54.9071,184.923,234.5352,125.3854,0,U,38857,999,3350,0.0,-1.8e-07,0,29600.367,844.705,23230.286,23214.178,PAYLOAD,LARGE,ESA,2012-10-12,FRGUI,,2252882,118278504,0 GALILEO-FM3,1 38857U 12055A   18060.17964340 -.00000018 +00000-0 +00000-0 0  9993,2 38857 054.9071 184.9230 0002721 234.5352 125.3854 01.70473589033505
2,GENERATED VIA SPACE-TRACK.ORG API,2018-03-03T06:36:24,18 SPCS,GALILEO-FM3,2012-055A,EARTH,TEME,UTC,SGP4,2018-03-02T08:28:03.520992,1.70473621,0.0002775,54.907,184.8906,235.1991,124.7258,0,U,38857,999,3352,0.0,-1.6e-07,0,29600.363,844.705,23230.443,23214.014,PAYLOAD,LARGE,ESA,2012-10-12,FRGUI,,2253295,118306258,0 GALILEO-FM3,1 38857U 12055A   18061.35281853 -.00000016 +00000-0 +00000-0 0  9993,2 38857 054.9070 184.8906 0002775 235.1991 124.7258 01.70473621033528
2,GENERATED VIA SPACE-TRACK.ORG API,2018-03-03T22:45:53,18 SPCS,GALILEO-FM3,2012-055A,EARTH,TEME,UTC,SGP4,2018-03-02T08:28:03.520992,1.70473621,0.0002775,54.907,184.8906,235.1991,124.7258,0,U,38857,999,3353,0.0,-1.6e-07,0,29600.363,844.705,23230.443,23214.014,PAYLOAD,LARGE,ESA,2012-10-12,FRGUI,,2253596,118321669,0 GALILEO-FM3,1 38857U 12055A   18061.35281853 -.00000016 +00000-0 +00000-0 0  9993,2 38857 054.9070 184.8906 0002775 235.1991 124.7258 01.70473621033539
2,GENERATED VIA SPACE-TRACK.ORG API,2018-03-04T06:50:47,18 SPCS,GALILEO-FM3,2012-055A,EARTH,TEME,UTC,SGP4,2018-03-03T12:37:26.239296,1.70473635,0.0002799,54.907,184.8583,235.4692,124.4629,0,U,38857,999,3354,0.0,-1.2e-07,0,29600.362,844.705,23230.512,23213.942,PAYLOAD,LARGE,ESA,2012-10-12,FRGUI,,2253698,118331968,0 GALILEO-FM3,1 38857U 12055A   18062.52599814 -.00000012 +00000-0 +00000-0 0  9998,2 38857 054.9070 184.8583 0002799 235.4692 124.4629 01.70473635033542
2,GENERATED VIA SPACE-TRACK.ORG API,2018-03-06T22:56:15,18 SPCS,GALILEO-FM3,2012-055A,EARTH,TEME,UTC,SGP4,2018-03-05T20:56:11.549760,1.70473697,0.0002901,54.9068,184.7935,236.7059,123.2394,0,U,38857,999,3359,0.0,-7e-08,0,29600.355,844.705,23230.807,23213.633,PAYLOAD,LARGE,ESA,2012-10-12,FRGUI,,2254683,118399702,0 GALILEO-FM3,1 38857U 12055A   18064.87235590 -.00000007 +00000-0 +00000-0 0  9990,2 38857 054.9068 184.7935 0002901 236.7059 123.2394 01.70473697033594
2,GENERATED VIA SPACE-TRACK.ORG API,2018-03-07T22:58:05,18 SPCS,GALILEO-FM3,2012-055A,EARTH,TEME,UTC,SGP4,2018-03-07T01:05:33.812736,1.70473708,0.0002919,54.9068,184.761,236.943,123.0064,0,U,38857,999,3360,0.0,-9e-08,0,29600.353,844.705,23230.859,23213.578,PAYLOAD,LARGE,ESA,2012-10-12,FRGUI,,2255095,118425870,0 GALILEO-FM3,1 38857U 12055A   18066.04553024 -.00000009 +00000-0 +00000-0 0  9998,2 38857 054.9068 184.7610 0002919 236.9430 123.0064 01.70473708033605
2,GENERATED VIA SPACE-TRACK.ORG API,2018-03-09T22:44:18,18 SPCS,GALILEO-FM3,2012-055A,EARTH,TEME,UTC,SGP4,2018-03-08T19:19:36.497856,1.70473741,0.000296,54.9066,184.7124,237.259,122.6917,0,U,38857,999,3364,0.0,-1.4e-07,0,29600.35,844.704,23230.976,23213.453,PAYLOAD,LARGE,ESA,2012-10-12,FRGUI,,2255841,118480680,0 GALILEO-FM3,1 38857U 12055A   18067.80528354 -.00000014 +00000-0 +00000-0 0  9997,2 38857 054.9066 184.7124 0002960 237.2590 122.6917 01.70473741033643
2,GENERATED VIA SPACE-TRACK.ORG API,2018-03-11T22:34:30,18 SPCS,GALILEO-FM3,2012-055A,EARTH,TEME,UTC,SGP4,2018-03-11T03:38:19.286304,1.70473755,0.000304,54.9064,184.6476,237.8691,122.0777,0,U,38857,999,3368,0.0,-1.8e-07,0,29600.348,844.704,23231.211,23213.214,PAYLOAD,LARGE,ESA,2012-10-12,FRGUI,,2256662,118531338,0 GALILEO-FM3,1 38857U 12055A   18070.15161211 -.00000018  00000-0  00000+0 0  9997,2 38857  54.9064 184.6476 0003040 237.8691 122.0777  1.70473755 33685
2,GENERATED VIA SPACE-TRACK.ORG API,2018-03-12T21:56:37,18 SPCS,GALILEO-FM3,2012-055A,EARTH,TEME,UTC,SGP4,2018-03-12T07:47:40.708608,1.70473754,0.0003073,54.9064,184.6152,238.1497,121.7953,0,U,38857,999,3369,0.0,-1.8e-07,0,29600.348,844.704,23231.309,23213.117,PAYLOAD,LARGE,ESA,2012-10-12,FRGUI,,2257098,118554826,0 GALILEO-FM3,1 38857U 12055A   18071.32477672 -.00000018 +00000-0 +00000-0 0  9999,2 38857 054.9064 184.6152 0003073 238.1497 121.7953 01.70473754033692
2,GENERATED VIA SPACE-TRACK.ORG API,2018-03-14T18:57:05,18 SPCS,GALILEO-FM3,2012-055A,EARTH,TEME,UTC,SGP4,2018-03-14T02:01:43.241664,1.70473739,0.0003198,54.9063,184.5667,239.2484,120.696,0,U,38857,999,3373,0.0,-1.5e-07,0,29600.35,844.704,23231.681,23212.749,PAYLOAD,LARGE,ESA,2012-10-12,FRGUI,,2257657,118591510,0 GALILEO-FM3,1 38857U 12055A   18073.08452826 -.00000015  00000-0  00000+0 0  9994,2 38857  54.9063 184.5667 0003198 239.2484 120.6960  1.70473739 33731
2,GENERATED VIA SPACE-TRACK.ORG API,2018-03-16T04:28:20,18 SPCS,GALILEO-FM3,2012-055A,EARTH,TEME,UTC,SGP4,2018-03-15T06:11:05.350848,1.70473725,0.0003242,54.9062,184.5343,239.7496,120.198,0,U,38857,999,3374,0.0,-1.1e-07,0,29600.351,844.704,23231.813,23212.62,PAYLOAD,LARGE,ESA,2012-10-12,FRGUI,,2258510,118625811,0 GALILEO-FM3,1 38857U 12055A   18074.25770082 -.00000011 +00000-0 +00000-0 0  9998,2 38857 054.9062 184.5343 0003242 239.7496 120.1980 01.70473725033742
2,GENERATED VIA SPACE-TRACK.ORG API,2018-03-18T06:30:10,18 SPCS,GALILEO-FM3,2012-055A,EARTH,TEME,UTC,SGP4,2018-03-17T14:29:50.645760,1.70473688,0.0003302,54.906,184.4695,240.3806,119.5808,0,U,38857,999,3379,0.0,0.0,0,29600.356,844.705,23231.995,23212.447,PAYLOAD,LARGE,ESA,2012-10-12,FRGUI,,2259461,118677715,0 GALILEO-FM3,1 38857U 12055A   18076.60405840 -.00000000  00000-0  00000+0 0  9993,2 38857  54.9060 184.4695 0003302 240.3806 119.5808  1.70473688 33793
2,GENERATED VIA SPACE-TRACK.ORG API,2018-03-19T21:57:51,18 SPCS,GALILEO-FM3,2012-055A,EARTH,TEME,UTC,SGP4,2018-03-19T08:43:54.958656,1.70473658,0.000335,54.9059,184.4209,240.7865,119.1876,0,U,38857,999,3381,0.0,9e-08,0,29600.359,844.705,23232.14,23212.308,PAYLOAD,LARGE,ESA,2012-10-12,FRGUI,,2260177,118714520,0 GALILEO-FM3,1 38857U 12055A   18078.36383054 +.00000009 +00000-0 +00000-0 0  9999,2 38857 054.9059 184.4209 0003350 240.7865 119.1876 01.70473658033815
2,GENERATED VIA SPACE-TRACK.ORG API,2018-03-21T06:35:35,18 SPCS,GALILEO-FM3,2012-055A,EARTH,TEME,UTC,SGP4,2018-03-20T12:53:17.505024,1.70473633,0.0003401,54.9058,184.3885,241.3474,118.6328,0,U,38857,999,3384,0.0,1.2e-07,0,29600.362,844.705,23232.294,23212.16,PAYLOAD,LARGE,ESA,2012-10-12,FRGUI,,2260813,118752648,0 GALILEO-FM3,1 38857U 12055A   18079.53700816  .00000012  00000-0  00000+0 0  9991,2 38857  54.9058 184.3885 0003401 241.3474 118.6328  1.70473633 33845
2,GENERATED VIA SPACE-TRACK.ORG API,2018-03-23T06:36:40,18 SPCS,GALILEO-FM3,2012-055A,EARTH,TEME,UTC,SGP4,2018-03-22T21:12:01.149696,1.70473604,0.0003475,54.9056,184.3236,242.1166,117.8653,0,U,38857,999,3388,0.0,6e-08,0,29600.365,844.705,23232.517,23211.944,PAYLOAD,LARGE,ESA,2012-10-12,FRGUI,,2261738,118802750,0 GALILEO-FM3,1 38857U 12055A   18081.88334664  .00000006  00000-0  00000+0 0  9999,2 38857  54.9056 184.3236 0003475 242.1166 117.8653  1.70473604 33885
2,GENERATED VIA SPACE-TRACK.ORG API,2018-03-27T05:43:32,18 SPCS,GALILEO-FM3,2012-055A,EARTH,TEME,UTC,SGP4,2018-03-26T09:40:04.150848,1.704736,0.0003601,54.9054,184.2264,243.4365,116.5306,0,U,38857,999,3394,0.0,-2.3e-07,0,29600.366,844.705,23232.89,23211.572,PAYLOAD,LARGE,ESA,2012-10-12,FRGUI,,2262769,118900153,0 GALILEO-FM3,1 38857U 12055A   18085.40282582 -.00000023 +00000-0 +00000-0 0  9993,2 38857 054.9054 184.2264 0003601 243.4365 116.5306 01.70473600033943
2,GENERATED VIA SPACE-TRACK.ORG API,2018-04-02T21:54:20,18 SPCS,GALILEO-FM3,2012-055A,EARTH,TEME,UTC,SGP4,2018-04-02T10:36:18.613440,1.70473727,0.0003822,54.9052,184.0318,245.4408,114.5569,0,U,38857,999,3405,0.0,-9e-08,0,29600.351,844.704,23233.529,23210.903,PAYLOAD,LARGE,ESA,2012-10-12,FRGUI,,2265685,119073329,0 GALILEO-FM3,1 38857U 12055A   18092.44188210 -.00000009 +00000-0 +00000-0 0  9992,2 38857 054.9052 184.0318 0003822 245.4408 114.5569 01.70473727034056
2,GENERATED VIA SPACE-TRACK.ORG API,2018-04-02T22:37:00,18 SPCS,GALILEO-FM3,2012-055A,EARTH,TEME,UTC,SGP4,2018-04-02T10:36:18.613440,1.70473727,0.0003822,54.9052,184.0318,245.4408,114.5569,0,U,38857,999,3406,0.0,-9e-08,0,29600.351,844.704,23233.529,23210.903,PAYLOAD,LARGE,ESA,2012-10-12,FRGUI,,2265718,119075667,0 GALILEO-FM3,1 38857U 12055A   18092.44188210 -.00000009  00000-0  00000+0 0  9991,2 38857  54.9052 184.0318 0003822 245.4408 114.5569  1.70473727 34067
2,GENERATED VIA SPACE-TRACK.ORG API,2018-04-04T21:56:24,18 SPCS,GALILEO-FM3,2012-055A,EARTH,TEME,UTC,SGP4,2018-04-03T14:45:40.785696,1.70473762,0.0003874,54.905,183.9995,245.779,114.2224,0,U,38857,999,3407,0.0,-9e-08,0,29600.347,844.704,23233.679,23210.745,PAYLOAD,LARGE,ESA,2012-10-12,FRGUI,,2266622,119125792,0 GALILEO-FM3,1 38857U 12055A   18093.61505539 -.00000009 +00000-0 +00000-0 0  9999,2 38857 054.9050 183.9995 0003874 245.7790 114.2224 01.70473762034073
2,GENERATED VIA SPACE-TRACK.ORG API,2018-04-04T05:38:57,18 SPCS,GALILEO-FM3,2012-055A,EARTH,TEME,UTC,SGP4,2018-04-03T14:45:40.817664,1.70473751,0.0003861,54.9051,183.9996,245.7325,114.2689,0,U,38857,999,3407,0.0,-9e-08,0,29600.348,844.704,23233.642,23210.785,PAYLOAD,LARGE,ESA,2012-10-12,FRGUI,,2266305,119110532,0 GALILEO-FM3,1 38857U 12055A   18093.61505576 -.00000009 +00000-0 +00000-0 0  9990,2 38857 054.9051 183.9996 0003861 245.7325 114.2689 01.70473751034078
